NORAD_CAT_ID,OBJECT_NAME,OBJECT_TYPE,EPOCH,MEAN_MOTION,ECCENTRICITY,INCLINATION,RA_OF_ASC_NODE,ARG_OF_PERICENTER,MEAN_ANOMALY,BSTAR,MEAN_MOTION_DOT,MEAN_MOTION_DDOT,TLE_LINE0,TLE_LINE1,TLE_LINE2,SEMIMAJOR_AXIS,PERIOD,APOGEE,PERIGEE,DECAYED
51872.0,STARLINK-3554,PAYLOAD,2023-12-22 10:14:23,15.088359,0.0001611,53.2184,37.5607,96.0046,264.113,0.00012581,1.715e-05,0.0,0 STARLINK-3554,1 51872U 22022W   23356.42665690  .00001715  00000-0  12581-3 0  9992,2 51872  53.2184  37.5607 0001611  96.0046 264.1130 15.08835900101097,6917.893,95.438,540.872,538.643,0.0
51872.0,STARLINK-3554,PAYLOAD,2023-12-23 11:40:32,15.08848896,0.0001565,53.2179,32.7993,84.1968,275.9202,9.8445e-05,1.279e-05,0.0,0 STARLINK-3554,1 51872U 22022W   23357.48649223  .00001279  00000-0  98445-4 0  9992,2 51872  53.2179  32.7993 0001565  84.1968 275.9202 15.08848896101251,6917.853,95.437,540.801,538.636,0.0
51872.0,STARLINK-3554,PAYLOAD,2023-12-23 22:48:15,15.08836823,0.0001468,53.2185,30.7214,88.6278,271.4882,8.4265e-05,1.053e-05,0.0,0 STARLINK-3554,1 51872U 22022W   23357.95017761  .00001053  00000-0  84265-4 0  9995,2 51872  53.2185  30.7214 0001468  88.6278 271.4882 15.08836823101327,6917.89,95.438,540.771,538.74,0.0
51872.0,STARLINK-3554,PAYLOAD,2023-12-24 11:31:19,15.08850486,0.0001436,53.2177,28.3349,94.0043,266.1113,0.00011842,1.598e-05,0.0,0 STARLINK-3554,1 51872U 22022W   23358.48008980  .00001598  00000-0  11842-3 0  9991,2 51872  53.2177  28.3349 0001436  94.0043 266.1113 15.08850486101404,6917.848,95.437,540.707,538.72,0.0
51872.0,STARLINK-3554,PAYLOAD,2023-12-25 08:11:20,15.08854399,0.0001592,53.2173,24.471,98.9114,261.2058,0.00024581,3.628e-05,0.0,0 STARLINK-3554,1 51872U 22022W   23359.34120520  .00003628  00000-0  24581-3 0  9992,2 51872  53.2173  24.4710 0001592  98.9114 261.2058 15.08854399101539,6917.836,95.437,540.803,538.6,0.0
51872.0,STARLINK-3554,PAYLOAD,2023-12-25 22:29:48,15.08838969,0.0001763,53.2175,21.799,106.1417,253.9769,2.2257e-05,6.6e-07,0.0,0 STARLINK-3554,1 51872U 22022W   23359.93737150  .00000066  00000-0  22257-4 0  9992,2 51872  53.2175  21.7990 0001763 106.1417 253.9769 15.08838969101621,6917.884,95.438,540.968,538.529,0.0
51872.0,STARLINK-3554,PAYLOAD,2023-12-26 11:12:54,15.08835665,0.0001428,53.2176,19.4129,97.7492,262.3662,-6.176e-05,-1.271e-05,0.0,0 STARLINK-3554,1 51872U 22022W   23360.46729943 -.00001271  00000-0 -61760-4 0  9996,2 51872  53.2176  19.4129 0001428  97.7492 262.3662 15.08835665101701,6917.894,95.438,540.747,538.771,0.0
51872.0,STARLINK-3554,PAYLOAD,2023-12-27 07:52:54,15.08845377,0.0001556,53.2177,15.5499,104.1386,255.9779,2.8622e-05,1.68e-06,0.0,0 STARLINK-3554,1 51872U 22022W   23361.32841290  .00000168  00000-0  28622-4 0  9994,2 51872  53.2177  15.5499 0001556 104.1386 255.9779 15.08845377101838,6917.864,95.437,540.805,538.653,0.0
51872.0,STARLINK-3554,PAYLOAD,2023-12-28 04:32:56,15.08834695,0.0001918,53.2168,11.685,119.035,241.0835,0.0002587,3.831e-05,0.0,0 STARLINK-3554,1 51872U 22022W   23362.18954205  .00003831  00000-0  25870-3 0  9991,2 51872  53.2168  11.6850 0001918 119.0350 241.0835 15.08834695101968,6917.897,95.438,541.088,538.435,0.0
51872.0,STARLINK-3554,PAYLOAD,2023-12-28 07:43:42,15.08838853,0.0001667,53.2171,11.0911,107.9736,252.1438,0.00027607,4.108e-05,0.0,0 STARLINK-3554,1 51872U 22022W   23362.32202115  .00004108  00000-0  27607-3 0  9991,2 51872  53.2171  11.0911 0001667 107.9736 252.1438 15.08838853101983,6917.884,95.438,540.902,538.596,0.0
51872.0,STARLINK-3554,PAYLOAD,2023-12-29 05:59:06,15.08834896,0.0001631,53.2175,6.9311,98.4625,261.6553,1.9114e-05,1.6e-07,0.0,0 STARLINK-3554,1 51872U 22022W   23363.24938598  .00000016  00000-0  19114-4 0  9993,2 51872  53.2175   6.9311 0001631  98.4625 261.6553 15.08834896102129,6917.896,95.438,540.889,538.633,0.0
51872.0,STARLINK-3554,PAYLOAD,2023-12-30 09:00:39,15.08844937,0.0001454,53.2183,1.8709,98.1589,261.9568,0.00015678,2.208e-05,0.0,0 STARLINK-3554,1 51872U 22022W   23364.37546196  .00002208  00000-0  15678-3 0  9992,2 51872  53.2183   1.8709 0001454  98.1589 261.9568 15.08844937102296,6917.865,95.437,540.736,538.724,0.0
51872.0,STARLINK-3554,PAYLOAD,2023-12-31 04:05:18,15.08834851,0.0001538,53.2182,358.309,109.1137,251.0022,9.1168e-05,1.163e-05,0.0,0 STARLINK-3554,1 51872U 22022W   23365.17035009  .00001163  00000-0  91168-4 0  9995,2 51872  53.2182 358.3090 0001538 109.1137 251.0022 15.08834851102416,6917.896,95.438,540.825,538.697,0.0
51872.0,STARLINK-3554,PAYLOAD,2023-12-31 08:51:27,15.08838149,0.0001485,53.2182,357.4101,91.9927,268.1235,0.00010943,1.454e-05,0.0,0 STARLINK-3554,1 51872U 22022W   23365.36906851  .00001454  00000-0  10943-3 0  9992,2 51872  53.2182 357.4101 0001485  91.9927 268.1235 15.08838149102447,6917.886,95.438,540.778,538.724,0.0
51872.0,STARLINK-3554,PAYLOAD,2024-01-01 08:42:14,15.08849273,0.0001487,53.2183,352.9526,90.771,269.3453,0.000125,1.702e-05,0.0,0 STARLINK-3554,1 51872U 22022W   24001.36266229  .00001702  00000-0  12500-3 0  9995,2 51872  53.2183 352.9526 0001487  90.7710 269.3453 15.08849273102599,6917.852,95.437,540.746,538.688,0.0
51872.0,STARLINK-3554,PAYLOAD,2024-01-02 03:46:50,15.08864041,0.0001454,53.2179,349.3849,86.5442,273.5717,0.00028176,4.202e-05,0.0,0 STARLINK-3554,1 51872U 22022W   24002.15752349  .00004202  00000-0  28176-3 0  9990,2 51872  53.2179 349.3849 0001454  86.5442 273.5717 15.08864041102715,6917.807,95.436,540.678,538.666,0.0
51872.0,STARLINK-3554,PAYLOAD,2024-01-02 08:32:59,15.08870623,0.0001471,53.2172,348.4923,87.2915,272.8246,0.00044447,6.799e-05,0.0,0 STARLINK-3554,1 51872U 22022W   24002.35624403  .00006799  00000-0  44447-3 0  9993,2 51872  53.2172 348.4923 0001471  87.2915 272.8246 15.08870623102748,6917.787,95.436,540.669,538.634,0.0
51872.0,STARLINK-3554,PAYLOAD,2024-01-03 03:37:38,15.08831647,0.000141,53.2168,344.927,89.1428,270.9726,-0.00027401,-4.645e-05,0.0,0 STARLINK-3554,1 51872U 22022W   24003.15113988 -.00004645  00000-0 -27401-3 0  9994,2 51872  53.2168 344.9270 0001410  89.1428 270.9726 15.08831647102860,6917.906,95.438,540.746,538.795,0.0
51872.0,STARLINK-3554,PAYLOAD,2024-01-03 08:23:47,15.08830093,0.0001377,53.217,344.0326,91.5982,268.5168,-0.00028608,-4.837e-05,0.0,0 STARLINK-3554,1 51872U 22022W   24003.34985947 -.00004837  00000-0 -28608-3 0  9990,2 51872  53.2170 344.0326 0001377  91.5982 268.5168 15.08830093102890,6917.911,95.438,540.728,538.823,0.0
51872.0,STARLINK-3554,PAYLOAD,2024-01-04 05:03:49,15.08836102,0.0001381,53.2174,340.166,97.7067,262.4082,0.0001003,1.309e-05,0.0,0 STARLINK-3554,1 51872U 22022W   24004.21098535  .00001309  00000-0  10030-3 0  9994,2 51872  53.2174 340.1660 0001381  97.7067 262.4082 15.08836102103020,6917.892,95.438,540.713,538.802,0.0
51872.0,STARLINK-3554,PAYLOAD,2024-01-04 22:33:04,15.08836682,0.0001397,53.2175,336.8942,105.5834,254.5312,0.00040456,6.156e-05,0.0,0 STARLINK-3554,1 51872U 22022W   24004.93963131  .00006156  00000-0  40456-3 0  9996,2 51872  53.2175 336.8942 0001397 105.5834 254.5312 15.08836682103136,6917.891,95.438,540.722,538.789,0.0
51872.0,STARLINK-3554,PAYLOAD,2024-01-05 08:05:22,15.08853098,0.0001417,53.2174,335.1109,100.8418,259.2734,0.00060331,9.33e-05,0.0,0 STARLINK-3554,1 51872U 22022W   24005.33706777  .00009330  00000-0  60331-3 0  9993,2 51872  53.2174 335.1109 0001417 100.8418 259.2734 15.08853098103197,6917.84,95.437,540.686,538.725,0.0
51872.0,STARLINK-3554,PAYLOAD,2024-01-05 22:23:51,15.08843357,0.0001771,53.2186,332.4308,84.6234,275.496,0.00020429,2.965e-05,0.0,0 STARLINK-3554,1 51872U 22022W   24005.93323052  .00002965  00000-0  20429-3 0  9991,2 51872  53.2186 332.4308 0001771  84.6234 275.4960 15.08843357103287,6917.87,95.437,540.96,538.51,0.0
51872.0,STARLINK-3554,PAYLOAD,2024-01-06 04:45:23,15.08840074,0.0001455,53.2174,331.242,97.5826,262.5331,8.89e-05,1.127e-05,0.0,0 STARLINK-3554,1 51872U 22022W   24006.19819090  .00001127  00000-0  88900-4 0  9990,2 51872  53.2174 331.2420 0001455  97.5826 262.5331 15.08840074103322,6917.88,95.438,540.752,538.739,0.0
51872.0,STARLINK-3554,PAYLOAD,2024-01-06 06:20:46,15.08841459,0.0001445,53.2175,330.9446,95.349,264.7667,0.00010698,1.415e-05,0.0,0 STARLINK-3554,1 51872U 22022W   24006.26443034  .00001415  00000-0  10698-3 0  9997,2 51872  53.2175 330.9446 0001445  95.3490 264.7667 15.08841459103334,6917.876,95.437,540.741,538.741,0.0
51872.0,STARLINK-3554,PAYLOAD,2024-01-07 07:46:56,15.08846824,0.0001424,53.2175,326.1894,93.0733,267.0422,0.00011799,1.591e-05,0.0,0 STARLINK-3554,1 51872U 22022W   24007.32426844  .00001591  00000-0  11799-3 0  9993,2 51872  53.2175 326.1894 0001424  93.0733 267.0422 15.08846824103493,6917.86,95.437,540.71,538.739,0.0
51872.0,STARLINK-3554,PAYLOAD,2024-01-08 06:02:20,15.0884816,0.0001474,53.2174,322.0242,104.2161,255.8995,0.00020073,2.909e-05,0.0,0 STARLINK-3554,1 51872U 22022W   24008.25162905  .00002909  00000-0  20073-3 0  9990,2 51872  53.2174 322.0242 0001474 104.2161 255.8995 15.08848160103630,6917.855,95.437,540.74,538.701,0.0
51872.0,STARLINK-3554,PAYLOAD,2024-01-09 04:17:44,15.08843051,0.0001543,53.2183,317.8639,85.3128,274.8041,7.3188e-05,8.77e-06,0.0,0 STARLINK-3554,1 51872U 22022W   24009.17899304  .00000877  00000-0  73188-4 0  9990,2 51872  53.2183 317.8639 0001543  85.3128 274.8041 15.08843051103773,6917.871,95.437,540.803,538.669,0.0
51872.0,STARLINK-3554,PAYLOAD,2024-01-09 05:53:07,15.08845168,0.0001495,53.2183,317.5643,93.6269,266.4894,0.00010748,1.423e-05,0.0,0 STARLINK-3554,1 51872U 22022W   24009.24523136  .00001423  00000-0  10748-3 0  9995,2 51872  53.2183 317.5643 0001495  93.6269 266.4894 15.08845168103784,6917.865,95.437,540.764,538.695,0.0
51872.0,STARLINK-3554,PAYLOAD,2024-01-09 20:11:36,15.08842752,0.0001561,53.2173,314.8888,134.6631,225.4489,0.00018234,2.615e-05,0.0,0 STARLINK-3554,1 51872U 22022W   24009.84139297  .00002615  00000-0  18234-3 0  9994,2 51872  53.2173 314.8888 0001561 134.6631 225.4489 15.08842752103878,6917.872,95.437,540.817,538.657,0.0
